{
    "links": {
        "self": "http://www.neowsapp.com/rest/v1/neo/3836123?api_key=iIulBulltgU6a56xZRHN4H3l9WmuAYTsLGpBGhQ2"
    },
    "id": "3836123",
    "neo_reference_id": "3836123",
    "name": "(2018 VR5)",
    "designation": "2018 VR5",
    "nasa_jpl_url": "http://ssd.jpl.nasa.gov/sbdb.cgi?sstr=3836123",
    "absolute_magnitude_h": 25.8,
    "estimated_diameter": {
        "kilometers": {
            "estimated_diameter_min": 0.0183888672,
            "estimated_diameter_max": 0.0411187571
        },
        "meters": {
            "estimated_diameter_min": 18.388867207,
            "estimated_diameter_max": 41.1187571041
        },
        "miles": {
            "estimated_diameter_min": 0.0114263088,
            "estimated_diameter_max": 0.0255500032
        },
        "feet": {
            "estimated_diameter_min": 60.3309310875,
            "estimated_diameter_max": 134.9040630575
        }
    },
    "is_potentially_hazardous_asteroid": false,
    "close_approach_data": [
        {
            "close_approach_date": "1900-01-03",
            "close_approach_date_full": "1900-Jan-03 07:59",
            "epoch_date_close_approach": -2208787260000,
            "relative_velocity": {
                "kilometers_per_second": "17.0357953734",
                "kilometers_per_hour": "61328.8633442526",
                "miles_per_hour": "38107.3706707663"
            },
            "miss_distance": {
                "astronomical": "0.4539463708",
                "lunar": "176.5851382412",
                "kilometers": "67909410.165910196",
                "miles": "42196950.7784888648"
            },
            "orbiting_body": "Earth"
        },
        {
            "close_approach_date": "2018-11-14",
            "close_approach_date_full": "2018-Nov-14 15:11",
            "epoch_date_close_approach": 1542208260000,
            "relative_velocity": {
                "kilometers_per_second": "6.5477582933",
                "kilometers_per_hour": "23571.9298557383",
                "miles_per_hour": "14646.6805261947"
            },
            "miss_distance": {
                "astronomical": "0.0712356285",
                "lunar": "27.7106594865",
                "kilometers": "10656698.291711295",
                "miles": "6621765.263134071"
            },
            "orbiting_body": "Earth"
        }
    ],
    "orbital_data": {
        "orbit_id": "1",
        "orbit_determination_date": "2018-11-09 20:05:32",
        "first_observation_date": "2018-11-01",
        "last_observation_date": "2018-11-09",
        "data_arc_in_days": 8,
        "observations_used": 19,
        "orbit_uncertainty": "8",
        "minimum_orbit_intersection": ".0696414",
        "jupiter_tisserand_invariant": "3.905",
        "epoch_osculation": "2458427.5",
        "eccentricity": ".4275459244905663",
        "semi_major_axis": "1.830779784120873",
        "inclination": "7.671874723811026",
        "ascending_node_longitude": "43.79454620203173",
        "orbital_period": "904.7999942918789",
        "perihelion_distance": "1.048037348780275",
        "perihelion_argument": "21.62048753476515",
        "aphelion_distance": "2.613522219461471",
        "perihelion_time": "2458448.637955594709",
        "mean_anomaly": "351.5896727872432",
        "mean_motion": ".3978779865949776",
        "equinox": "J2000",
        "orbit_class": {
            "orbit_class_type": "AMO",
            "orbit_class_description": "Near-Earth asteroid orbits similar to that of 1221 Amor",
            "orbit_class_range": "1.017 AU < q (perihelion) < 1.3 AU"
        }
    },
    "is_sentry_object": false
}